OBJECT_NAME,OBJECT_ID,EPOCH,MEAN_MOTION,ECCENTRICITY,INCLINATION,RA_OF_ASC_NODE,ARG_OF_PERICENTER,MEAN_ANOMALY,EPHEMERIS_TYPE,CLASSIFICATION_TYPE,NORAD_CAT_ID,ELEMENT_SET_NO,REV_AT_EPOCH,BSTAR,MEAN_MOTION_DOT,MEAN_MOTION_DDOT
APRIZESAT 1,2004-025G,2025-03-10T22:38:41.359200,14.51313451,.00461,98.6202,63.3538,122.6055,237.9602,0,U,28372,999,9470,.17548E-3,.659E-5,0
AURA,2004-026A,2025-03-10T21:02:51.879840,14.60064111,.0001399,98.2839,19.6087,67.8902,292.2446,0,U,28376,999,9857,.43997E-3,.2067E-4,0
ANIK F2,2004-027A,2025-03-10T20:27:34.876800,1.00271774,.0003128,2.0869,85.5032,299.2789,339.7357,0,U,28378,999,3661,0,-.66E-6,0
SHIJIAN-6 01A (SJ-6 01A),2004-035A,2025-03-10T12:56:25.682496,15.09211649,.0005684,97.6288,92.1346,299.4764,60.5897,0,U,28413,999,11732,.71524E-3,.11322E-3,0
COSMOS 2408,2004-037A,2025-03-10T21:35:49.662240,12.45666073,.001575,82.4789,256.0696,201.5334,158.5087,0,U,28419,999,93022,.24458E-3,.45E-6,0
AMC-15,2004-041A,2025-03-10T21:23:17.334240,1.00271360,.0002561,0.0449,311.2821,21.4651,51.7998,0,U,28446,999,7466,0,-.105E-5,0
NAVSTAR 56 (USA 180),2004-045A,2025-03-05T15:32:28.739040,2.00657176,.0164237,55.3593,343.7348,300.8074,57.1622,0,U,28474,999,14902,0,-.98E-6,0
HELIOS 2A,2004-049A,2025-03-10T21:12:50.383008,15.00382036,.0007929,98.3223,87.4393,72.6475,287.5614,0,U,28492,999,8423,.2723E-3,.3354E-4,0
NANOSAT-1,2004-049B,2025-03-10T20:47:34.420704,14.78468167,.000372,98.1651,192.4972,358.3911,1.7286,0,U,28493,999,8694,.37526E-3,.2684E-4,0
COSMOS 2414,2005-002A,2025-03-10T21:48:22.027392,13.87857299,.0039311,82.9505,34.0233,208.6763,151.2239,0,U,28521,999,1988,.67608E-4,.96E-6,0
NSS-10,2005-003A,2025-03-10T19:41:47.062176,1.00271720,.0003111,5.2878,76.0351,267.0945,83.5809,0,U,28526,999,4850,0,-.266E-5,0
XTAR-EUR,2005-005A,2025-03-10T16:20:56.715936,1.00272910,.000509,3.1380,82.4754,248.3810,111.9603,0,U,28542,999,7354,0,.134E-5,0
XM-3 (RHYTHM),2005-008A,2025-03-10T19:27:38.831904,1.00271455,.0001407,0.0672,260.5015,145.0374,328.7428,0,U,28626,999,3797,0,-.216E-5,0
GALAXY 28 (G-28),2005-022A,2025-03-10T14:18:34.277184,1.00271147,.0005217,2.1008,84.7316,219.4474,349.9560,0,U,28702,999,4733,0,-.202E-5,0
SJ-7,2005-024A,2025-03-10T14:07:56.068032,15.12554879,.0018898,97.7653,84.1339,186.9023,173.1950,0,U,28737,999,7773,.63961E-3,.1114E-3,0
THAICOM 4,2005-028A,2025-03-10T21:20:38.761728,1.00269898,.0001916,0.0125,116.9533,235.6322,255.8383,0,U,28786,999,7168,0,-.38E-5,0
REIMEI (INDEX),2005-031B,2025-03-10T21:05:34.111392,15.03999132,.0022374,97.9838,170.5642,235.1134,124.7988,0,U,28810,999,6121,.66681E-3,.9203E-4,0
ANIK F1R,2005-036A,2025-03-10T10:47:36.746304,1.00272368,.0002646,3.1208,82.3627,285.7126,214.8562,0,U,28868,999,4180,0,-.91E-6,0
NAVSTAR 57 (USA 183),2005-038A,2025-03-10T10:16:11.591616,2.00567278,.0133598,55.2671,291.8459,289.4949,253.5094,0,U,28874,999,14253,0,-.9E-7,0
SYRACUSE 3A,2005-041B,2025-03-10T19:47:38.865696,1.00274353,.0003079,3.4583,81.6166,277.6874,128.1327,0,U,28885,999,7110,0,.114E-5,0
