APRIZESAT 1             
1 28372U 04025G   25069.94353425  .00000659  00000+0  17548-3 0  9997
2 28372  98.6202  63.3538 0046100 122.6055 237.9602 14.51313451 94742
AURA                    
1 28376U 04026A   25069.87698935  .00002067  00000+0  43997-3 0  9994
2 28376  98.2839  19.6087 0001399  67.8902 292.2446 14.60064111 98574
ANIK F2                 
1 28378U 04027A   25069.85248700 -.00000066  00000+0  00000+0 0  9998
2 28378   2.0869  85.5032 0003128 299.2789 339.7357  1.00271774 36610
SHIJIAN-6 01A (SJ-6 01A)
1 28413U 04035A   25069.53918614  .00011322  00000+0  71524-3 0  9999
2 28413  97.6288  92.1346 0005684 299.4764  60.5897 15.09211649117326
COSMOS 2408             
1 28419U 04037A   25069.89988035  .00000045  00000+0  24458-3 0  9994
2 28419  82.4789 256.0696 0015750 201.5334 158.5087 12.45666073930224
AMC-15                  
1 28446U 04041A   25069.89117285 -.00000106  00000+0  00000+0 0  9992
2 28446   0.0449 311.2821 0002561  21.4651  51.7998  1.00271360 74701
NAVSTAR 56 (USA 180)    
1 28474U 04045A   25064.64755485 -.00000098  00000+0  00000+0 0  9995
2 28474  55.3593 343.7348 0164237 300.8074  57.1622  2.00657176149027
HELIOS 2A               
1 28492U 04049A   25069.88391647  .00003354  00000+0  27230-3 0  9991
2 28492  98.3223  87.4393 0007929  72.6475 287.5614 15.00382036 84234
NANOSAT-1               
1 28493U 04049B   25069.86637061  .00002684  00000+0  37526-3 0  9997
2 28493  98.1651 192.4972 0003720 358.3911   1.7286 14.78468167 86947
COSMOS 2414             
1 28521U 05002A   25069.90858828  .00000096  00000+0  67608-4 0  9990
2 28521  82.9505  34.0233 0039311 208.6763 151.2239 13.87857299 19881
NSS-10                  
1 28526U 05003A   25069.82068359 -.00000266  00000+0  00000+0 0  9997
2 28526   5.2878  76.0351 0003111 267.0945  83.5809  1.00271720 48506
XTAR-EUR                
1 28542U 05005A   25069.68121199  .00000134  00000+0  00000+0 0  9996
2 28542   3.1380  82.4754 0005090 248.3810 111.9603  1.00272910 73540
XM-3 (RHYTHM)           
1 28626U 05008A   25069.81086611 -.00000216  00000+0  00000+0 0  9998
2 28626   0.0672 260.5015 0001407 145.0374 328.7428  1.00271455 37971
GALAXY 28 (G-28)        
1 28702U 05022A   25069.59623006 -.00000202  00000+0  00000+0 0  9994
2 28702   2.1008  84.7316 0005217 219.4474 349.9560  1.00271147 47333
SJ-7                    
1 28737U 05024A   25069.58884338  .00011140  00000+0  63961-3 0  9991
2 28737  97.7653  84.1339 0018898 186.9023 173.1950 15.12554879 77734
THAICOM 4               
1 28786U 05028A   25069.88933752 -.00000380  00000+0  00000+0 0  9993
2 28786   0.0125 116.9533 0001916 235.6322 255.8383  1.00269898 71688
REIMEI (INDEX)          
1 28810U 05031B   25069.87886703  .00009203  00000+0  66681-3 0  9990
2 28810  97.9838 170.5642 0022374 235.1134 124.7988 15.03999132 61218
ANIK F1R                
1 28868U 05036A   25069.44973086 -.00000091  00000+0  00000+0 0  9998
2 28868   3.1208  82.3627 0002646 285.7126 214.8562  1.00272368 41805
NAVSTAR 57 (USA 183)    
1 28874U 05038A   25069.42791194 -.00000009  00000+0  00000+0 0  9992
2 28874  55.2671 291.8459 0133598 289.4949 253.5094  2.00567278142539
SYRACUSE 3A             
1 28885U 05041B   25069.82475539  .00000114  00000+0  00000+0 0  9990
2 28885   3.4583  81.6166 0003079 277.6874 128.1327  1.00274353 71102
